STARLINK-2022           
1 47643U 21012Z   24214.17461310  .00001030  00000+0  88032-4 0  9994
2 47643  53.0530 160.0949 0001396  88.6666 271.4483 15.06397092191495
